start=new Date('2023-01-01T00:00:00.000Z').valueOf();
sats=[{"NORAD_CAT_ID":"48594","OBJECT_NAME":"STARLINK-2251","DECAY_DATE":null,"REV_AT_EPOCH":"9006","ECCENTRICITY":"0.00017180","REF_FRAME":"TEME","MEAN_MOTION_DOT":"0.00005413","TLE_LINE2":"2 48594  53.0576 296.5106 0001718  56.7336 303.3818 15.06405452 90067","SITE":"AFETR","APOAPSIS":"548.387","PERIOD":"95.592","RCS_SIZE":"LARGE","MEAN_MOTION_DDOT":"0.0000000000000","ARG_OF_PERICENTER":"56.7336","COUNTRY_CODE":"US","ELEMENT_SET_NO":"999","RA_OF_ASC_NODE":"296.5106","OBJECT_ID":"2021-041AT","MEAN_MOTION":"15.06405452","BSTAR":"0.00038197000000","INCLINATION":"53.0576","MEAN_ELEMENT_THEORY":"SGP4","FILE":"3728081","GP_ID":"221889798","EPHEMERIS_TYPE":"0","CLASSIFICATION_TYPE":"U","OBJECT_TYPE":"PAYLOAD","PERIAPSIS":"546.007","TLE_LINE1":"1 48594U 21041AT  22365.82307698  .00005413  00000-0  38197-3 0  9993","LAUNCH_DATE":"2021-05-15","CENTER_NAME":"EARTH","MEAN_ANOMALY":"303.3818","SEMIMAJOR_AXIS":"6925.332","EPOCH":"2022-12-31T19:45:13.851072","TIME_SYSTEM":"UTC"},{"MEAN_MOTION_DDOT":"0.0000000000000","ARG_OF_PERICENTER":"46.7002","COUNTRY_CODE":"US","RCS_SIZE":"LARGE","PERIOD":"95.591","BSTAR":"0.00025646000000","MEAN_MOTION":"15.06410898","OBJECT_ID":"2021-041AU","ELEMENT_SET_NO":"999","RA_OF_ASC_NODE":"329.3225","REF_FRAME":"TEME","ECCENTRICITY":"0.00018190","DECAY_DATE":null,"REV_AT_EPOCH":"9081","NORAD_CAT_ID":"48595","OBJECT_NAME":"STARLINK-2252","SITE":"AFETR","TLE_LINE2":"2 48595  53.0566 329.3225 0001819  46.7002 313.4138 15.06410898 90815","APOAPSIS":"548.440","MEAN_MOTION_DOT":"0.00003541","CENTER_NAME":"EARTH","PERIAPSIS":"545.920","TLE_LINE1":"1 48595U 21041AU  22365.17894225  .00003541  00000-0  25646-3 0  9994","LAUNCH_DATE":"2021-05-15","OBJECT_TYPE":"PAYLOAD","TIME_SYSTEM":"UTC","SEMIMAJOR_AXIS":"6925.315","EPOCH":"2022-12-31T04:17:40.610400","MEAN_ANOMALY":"313.4138","GP_ID":"221834837","FILE":"3727988","MEAN_ELEMENT_THEORY":"SGP4","INCLINATION":"53.0566","CLASSIFICATION_TYPE":"U","EPHEMERIS_TYPE":"0"},{"TIME_SYSTEM":"UTC","MEAN_ANOMALY":"315.1630","SEMIMAJOR_AXIS":"6925.298","EPOCH":"2022-12-31T14:22:46.012224","LAUNCH_DATE":"2021-05-15","TLE_LINE1":"1 48596U 21041AV  22365.59914366  .00001268  00000-0  10398-3 0  9992","PERIAPSIS":"545.630","CENTER_NAME":"EARTH","OBJECT_TYPE":"PAYLOAD","CLASSIFICATION_TYPE":"U","EPHEMERIS_TYPE":"0","GP_ID":"221811141","INCLINATION":"53.0542","FILE":"3727911","MEAN_ELEMENT_THEORY":"SGP4","BSTAR":"0.00010398000000","RA_OF_ASC_NODE":"327.4322","ELEMENT_SET_NO":"999","MEAN_MOTION":"15.06416568","OBJECT_ID":"2021-041AV","ARG_OF_PERICENTER":"44.9537","COUNTRY_CODE":"US","MEAN_MOTION_DDOT":"0.0000000000000","PERIOD":"95.591","RCS_SIZE":"LARGE","TLE_LINE2":"2 48596  53.0542 327.4322 0002214  44.9537 315.1630 15.06416568 90063","APOAPSIS":"548.696","SITE":"AFETR","MEAN_MOTION_DOT":"0.00001268","ECCENTRICITY":"0.00022140","REF_FRAME":"TEME","OBJECT_NAME":"STARLINK-2253","NORAD_CAT_ID":"48596","REV_AT_EPOCH":"9006","DECAY_DATE":null},{"MEAN_MOTION_DOT":"0.00005276","APOAPSIS":"548.462","TLE_LINE2":"2 48597  53.0542 327.3857 0001835  45.1210 314.9928 15.06407330 90878","SITE":"AFETR","REV_AT_EPOCH":"9087","DECAY_DATE":null,"OBJECT_NAME":"STARLINK-2255","NORAD_CAT_ID":"48597","REF_FRAME":"TEME","ECCENTRICITY":"0.00018350","MEAN_MOTION":"15.06407330","OBJECT_ID":"2021-041AW","RA_OF_ASC_NODE":"327.3857","ELEMENT_SET_NO":"999","BSTAR":"0.00037276000000","RCS_SIZE":"LARGE","PERIOD":"95.592","ARG_OF_PERICENTER":"45.1210","COUNTRY_CODE":"US","MEAN_MOTION_DDOT":"0.0000000000000","EPHEMERIS_TYPE":"0","CLASSIFICATION_TYPE":"U","MEAN_ELEMENT_THEORY":"SGP4","FILE":"3728081","INCLINATION":"53.0542","GP_ID":"221889559","SEMIMAJOR_AXIS":"6925.326","EPOCH":"2022-12-31T14:33:23.502528","MEAN_ANOMALY":"314.9928","TIME_SYSTEM":"UTC","OBJECT_TYPE":"PAYLOAD","CENTER_NAME":"EARTH","LAUNCH_DATE":"2021-05-15","PERIAPSIS":"545.920","TLE_LINE1":"1 48597U 21041AW  22365.60652202  .00005276  00000-0  37276-3 0  9990"},{"OBJECT_ID":"2021-041AX","MEAN_MOTION":"15.06419366","RA_OF_ASC_NODE":"327.0912","ELEMENT_SET_NO":"999","BSTAR":"0.00023693000000","RCS_SIZE":"LARGE","PERIOD":"95.591","ARG_OF_PERICENTER":"69.0437","COUNTRY_CODE":"US","MEAN_MOTION_DDOT":"0.0000000000000","MEAN_MOTION_DOT":"0.00003251","APOAPSIS":"548.361","TLE_LINE2":"2 48598  53.0540 327.0912 0001742  69.0437 291.0738 15.06419366 90077","SITE":"AFETR","REV_AT_EPOCH":"9007","DECAY_DATE":null,"OBJECT_NAME":"STARLINK-2256","NORAD_CAT_ID":"48598","REF_FRAME":"TEME","ECCENTRICITY":"0.00017420","SEMIMAJOR_AXIS":"6925.289","EPOCH":"2022-12-31T16:14:13.162272","MEAN_ANOMALY":"291.0738","TIME_SYSTEM":"UTC","OBJECT_TYPE":"PAYLOAD","CENTER_NAME":"EARTH","LAUNCH_DATE":"2021-05-15","TLE_LINE1":"1 48598U 21041AX  22365.67654123  .00003251  00000-0  23693-3 0  9991","PERIAPSIS":"545.948","EPHEMERIS_TYPE":"0","CLASSIFICATION_TYPE":"U","FILE":"3728081","MEAN_ELEMENT_THEORY":"SGP4","INCLINATION":"53.0540","GP_ID":"221890299"},{"RCS_SIZE":"LARGE","PERIOD":"95.591","MEAN_MOTION_DDOT":"0.0000000000000","ARG_OF_PERICENTER":"53.6218","COUNTRY_CODE":"US","OBJECT_ID":"2021-041AY","MEAN_MOTION":"15.06414923","ELEMENT_SET_NO":"999","RA_OF_ASC_NODE":"302.5687","BSTAR":"0.00039367000000","DECAY_DATE":null,"REV_AT_EPOCH":"9122","NORAD_CAT_ID":"48599","OBJECT_NAME":"STARLINK-2274","REF_FRAME":"TEME","ECCENTRICITY":"0.00019100","MEAN_MOTION_DOT":"0.00005589","APOAPSIS":"548.491","TLE_LINE2":"2 48599  53.0542 302.5687 0001910  53.6218 306.4947 15.06414923 91225","SITE":"AFETR","OBJECT_TYPE":"PAYLOAD","CENTER_NAME":"EARTH","PERIAPSIS":"545.845","TLE_LINE1":"1 48599U 21041AY  22365.57011845  .00005589  00000-0  39367-3 0  9990","LAUNCH_DATE":"2021-05-15","EPOCH":"2022-12-31T13:40:58.234080","SEMIMAJOR_AXIS":"6925.303","MEAN_ANOMALY":"306.4947","TIME_SYSTEM":"UTC","MEAN_ELEMENT_THEORY":"SGP4","FILE":"3728081","INCLINATION":"53.0542","GP_ID":"221889058","EPHEMERIS_TYPE":"0","CLASSIFICATION_TYPE":"U"},{"OBJECT_TYPE":"PAYLOAD","LAUNCH_DATE":"2021-05-15","PERIAPSIS":"545.806","TLE_LINE1":"1 48600U 21041AZ  22365.60744240  .00012773  00000-0  87400-3 0  9993","CENTER_NAME":"EARTH","MEAN_ANOMALY":"295.9785","SEMIMAJOR_AXIS":"6925.236","EPOCH":"2022-12-31T14:34:43.023360","TIME_SYSTEM":"UTC","INCLINATION":"53.0537","MEAN_ELEMENT_THEORY":"SGP4","FILE":"3728081","GP_ID":"221889308","EPHEMERIS_TYPE":"0","CLASSIFICATION_TYPE":"U","PERIOD":"95.590","RCS_SIZE":"LARGE","ARG_OF_PERICENTER":"64.1397","COUNTRY_CODE":"US","MEAN_MOTION_DDOT":"0.0000000000000","RA_OF_ASC_NODE":"317.3966","ELEMENT_SET_NO":"999","MEAN_MOTION":"15.06436646","OBJECT_ID":"2021-041AZ","BSTAR":"0.00087400000000","OBJECT_NAME":"STARLINK-2275","NORAD_CAT_ID":"48600","REV_AT_EPOCH":"9101","DECAY_DATE":null,"ECCENTRICITY":"0.00018700","REF_FRAME":"TEME","MEAN_MOTION_DOT":"0.00012773","SITE":"AFETR","TLE_LINE2":"2 48600  53.0537 317.3966 0001870  64.1397 295.9785 15.06436646 91011","APOAPSIS":"548.396"},{"CLASSIFICATION_TYPE":"U","EPHEMERIS_TYPE":"0","GP_ID":"221890060","FILE":"3728081","MEAN_ELEMENT_THEORY":"SGP4","INCLINATION":"53.0557","TIME_SYSTEM":"UTC","SEMIMAJOR_AXIS":"6925.346","EPOCH":"2022-12-31T19:15:21.578112","MEAN_ANOMALY":"301.3027","CENTER_NAME":"EARTH","LAUNCH_DATE":"2021-05-15","TLE_LINE1":"1 48602U 21041BB  22365.80233308  .00002448  00000-0  18320-3 0  9998","PERIAPSIS":"545.949","OBJECT_TYPE":"PAYLOAD","SITE":"AFETR","TLE_LINE2":"2 48602  53.0557 301.5184 0001823  58.8141 301.3027 15.06400743 91242","APOAPSIS":"548.474","MEAN_MOTION_DOT":"0.00002448","REF_FRAME":"TEME","ECCENTRICITY":"0.00018230","REV_AT_EPOCH":"9124","DECAY_DATE":null,"OBJECT_NAME":"STARLINK-2713","NORAD_CAT_ID":"48602","BSTAR":"0.00018320000000","MEAN_MOTION":"15.06400743","OBJECT_ID":"2021-041BB","RA_OF_ASC_NODE":"301.5184","ELEMENT_SET_NO":"999","COUNTRY_CODE":"US","ARG_OF_PERICENTER":"58.8141","MEAN_MOTION_DDOT":"0.0000000000000","RCS_SIZE":"LARGE","PERIOD":"95.592"},{"COUNTRY_CODE":"US","ARG_OF_PERICENTER":"43.6198","MEAN_MOTION_DDOT":"0.0000000000000","RCS_SIZE":"LARGE","PERIOD":"95.592","BSTAR":"0.00031535000000","MEAN_MOTION":"15.06402007","OBJECT_ID":"2021-041BC","RA_OF_ASC_NODE":"297.7918","ELEMENT_SET_NO":"999","REF_FRAME":"TEME","ECCENTRICITY":"0.00020770","REV_AT_EPOCH":"9128","DECAY_DATE":null,"OBJECT_NAME":"STARLINK-2714","NORAD_CAT_ID":"48603","SITE":"AFETR","TLE_LINE2":"2 48603  53.0567 297.7918 0002077  43.6198 316.4955 15.06402007 91287","APOAPSIS":"548.646","MEAN_MOTION_DOT":"0.00004419","CENTER_NAME":"EARTH","LAUNCH_DATE":"2021-05-15","TLE_LINE1":"1 48603U 21041BC  22365.51618899  .00004419  00000-0  31535-3 0  9992","PERIAPSIS":"545.769","OBJECT_TYPE":"PAYLOAD","TIME_SYSTEM":"UTC","SEMIMAJOR_AXIS":"6925.342","EPOCH":"2022-12-31T12:23:18.728736","MEAN_ANOMALY":"316.4955","GP_ID":"221866579","MEAN_ELEMENT_THEORY":"SGP4","FILE":"3728033","INCLINATION":"53.0567","CLASSIFICATION_TYPE":"U","EPHEMERIS_TYPE":"0"},{"CLASSIFICATION_TYPE":"U","EPHEMERIS_TYPE":"0","GP_ID":"221834838","MEAN_ELEMENT_THEORY":"SGP4","FILE":"3727988","INCLINATION":"53.0529","TIME_SYSTEM":"UTC","EPOCH":"2022-12-31T07:39:23.578560","SEMIMAJOR_AXIS":"6925.256","MEAN_ANOMALY":"308.0912","CENTER_NAME":"EARTH","LAUNCH_DATE":"2021-05-15","TLE_LINE1":"1 48604U 21041BD  22365.31902290  .00012513  00000-0  85673-3 0  9998","PERIAPSIS":"545.771","OBJECT_TYPE":"PAYLOAD","TLE_LINE2":"2 48604  53.0529 328.6905 0001948  52.0253 308.0912 15.06430351 90831","APOAPSIS":"548.470","SITE":"AFETR","MEAN_MOTION_DOT":"0.00012513","REF_FRAME":"TEME","ECCENTRICITY":"0.00019480","REV_AT_EPOCH":"9083","DECAY_DATE":null,"OBJECT_NAME":"STARLINK-2757","NORAD_CAT_ID":"48604","BSTAR":"0.00085673000000","MEAN_MOTION":"15.06430351","OBJECT_ID":"2021-041BD","RA_OF_ASC_NODE":"328.6905","ELEMENT_SET_NO":"999","COUNTRY_CODE":"US","ARG_OF_PERICENTER":"52.0253","MEAN_MOTION_DDOT":"0.0000000000000","RCS_SIZE":"LARGE","PERIOD":"95.590"}];
